{
"type": "FeatureCollection",
"name": "ne_10m_coastline",
"features": [
{ "type": "Feature", "properties": { "featurecla": "Coastline", "scalerank": 0, "min_zoom": 0.0 }, "geometry": { "type": "MultiLineString", "coordinates": [ [ [ -74.1159263, 40.0 ], [ -74.1094865, 40.0028344 ], [ -74.1036855, 40.014024 ], [ -74.0830156, 40.0112096 ], [ -74.0756814, 40.0251772 ], [ -74.063503, 40.0307519 ], [ -74.0671218, 40.0419347 ], [ -74.0780661, 40.0438109 ], [ -74.0804803, 40.0512655 ], [ -74.060699, 40.0621605 ], [ -74.0502824, 40.0549991 ], [ -74.0513253, 40.035394 ], [ -74.0574653, 40.0121224 ], [ -74.0627787, 40.0 ] ], [ [ -74.0460287, 40.0 ], [ -74.0404106, 40.0280781 ], [ -74.0367194, 40.0485854 ], [ -74.0305596, 40.0793409 ], [ -74.0256057, 40.1110301 ], [ -74.0182244, 40.1408945 ], [ -74.010752, 40.1675555 ], [ -73.9920548, 40.2268741 ], [ -73.979888, 40.2801578 ], [ -73.9723937, 40.3276503 ], [ -73.97093, 40.3947488 ], [ -73.9757012, 40.4292703 ], [ -73.9791561, 40.4492862 ], [ -73.9895727, 40.4682071 ], [ -74.0182186, 40.4805362 ], [ -73.998199, 40.4411075 ], [ -73.9953109, 40.4218527 ], [ -73.9880086, 40.4078336 ], [ -73.9929907, 40.4024112 ], [ -74.032338, 40.4216169 ], [ -74.1199438, 40.4452579 ], [ -74.1459041, 40.4476993 ], [ -74.1971329, 40.4408633 ], [ -74.205922, 40.4429385 ], [ -74.2219132, 40.4518904 ], [ -74.256337, 40.4600284 ], [ -74.26955, 40.4830586 ], [ -74.2826874, 40.4973188 ], [ -74.2696495, 40.5049203 ], [ -74.2639303, 40.5132898 ], [ -74.2598776, 40.5367314 ], [ -74.2604876, 40.5518196 ], [ -74.2490438, 40.5629746 ], [ -74.2330169, 40.5665374 ], [ -74.2216691, 40.5720889 ], [ -74.2152862, 40.5916578 ], [ -74.2096468, 40.6342306 ], [ -74.1903207, 40.6493839 ], [ -74.1790665, 40.6535098 ], [ -74.160756, 40.6624617 ], [ -74.1500181, 40.664183 ], [ -74.1421914, 40.6761209 ], [ -74.1333179, 40.6912381 ], [ -74.1260168, 40.7031704 ], [ -74.1124354, 40.7178935 ], [ -74.105568, 40.7051926 ], [ -74.1389912, 40.6578477 ], [ -74.1420854, 40.646323 ], [ -74.1310222, 40.6451769 ], [ -74.1106597, 40.6503619 ], [ -74.0960058, 40.6547579 ], [ -74.0893449, 40.6692569 ], [ -74.0710343, 40.6872012 ], [ -74.0480851, 40.700629 ], [ -74.0319294, 40.7141809 ], [ -74.0280282, 40.7278573 ], [ -74.0209269, 40.742051 ], [ -74.018633, 40.7516827 ], [ -74.0143108, 40.7658434 ], [ -74.0062525, 40.7806139 ], [ -73.9919157, 40.7984599 ], [ -73.954742, 40.858588 ], [ -73.9180802, 40.9314639 ], [ -73.9077042, 40.9718692 ], [ -73.9071346, 40.9907901 ], [ -73.9063615, 41.0162621 ], [ -73.9206437, 41.1019555 ], [ -73.9166561, 41.1456973 ], [ -73.9178768, 41.1635196 ], [ -73.9323209, 41.178269 ], [ -73.9522799, 41.1892939 ], [ -73.9630693, 41.2056987 ], [ -73.9702042, 41.2190616 ], [ -73.9776098, 41.2528751 ], [ -73.9821671, 41.2611352 ], [ -73.9849747, 41.2695987 ], [ -73.9820451, 41.2837589 ], [ -73.9759415, 41.2921817 ], [ -73.9659725, 41.3001163 ], [ -73.9473364, 41.3111026 ], [ -73.9451391, 41.2910017 ], [ -73.9534806, 41.2747257 ], [ -73.9570206, 41.2577579 ], [ -73.9405005, 41.2359887 ], [ -73.9075822, 41.213365 ], [ -73.8957413, 41.2031925 ], [ -73.8858943, 41.1875675 ], [ -73.8753149, 41.1532657 ], [ -73.8715714, 41.115546 ], [ -73.8721818, 41.0336368 ], [ -73.8753963, 41.0133324 ], [ -73.8894751, 40.972154 ], [ -73.89802, 40.9304874 ], [ -73.9218644, 40.8867862 ], [ -73.9127498, 40.8815779 ], [ -73.9088436, 40.868557 ], [ -73.915354, 40.8568383 ], [ -73.9257706, 40.836005 ], [ -73.9322811, 40.8255883 ], [ -73.9322811, 40.8177758 ], [ -73.9268286, 40.8047956 ], [ -73.8938326, 40.8038534 ], [ -73.8660279, 40.8118375 ], [ -73.8297281, 40.8108976 ], [ -73.7976851, 40.8131937 ], [ -73.8050589, 40.8261472 ], [ -73.8199103, 40.8391298 ], [ -73.8169653, 40.8620059 ], [ -73.8116756, 40.8710391 ], [ -73.7999161, 40.8722598 ], [ -73.7881567, 40.8717716 ], [ -73.7828263, 40.876044 ], [ -73.7774145, 40.8941104 ], [ -73.7643937, 40.9101016 ], [ -73.720367, 40.9470076 ], [ -73.7107641, 40.9530297 ], [ -73.6987199, 40.9547794 ], [ -73.6769913, 40.9547794 ], [ -73.6743872, 40.9588077 ], [ -73.6531469, 40.9821231 ], [ -73.64802, 40.9920922 ], [ -73.6502579, 40.9965681 ], [ -73.6417001, 41.0017739 ], [ -73.634582, 41.0070551 ], [ -73.6193673, 41.008738 ], [ -73.6111474, 41.0113362 ], [ -73.6039233, 41.0228157 ], [ -73.5968751, 41.0236704 ], [ -73.5899935, 41.0147914 ], [ -73.5648494, 41.0189477 ], [ -73.5467016, 41.028876 ], [ -73.537124, 41.0312784 ], [ -73.523211, 41.0214907 ], [ -73.5041986, 41.0425677 ], [ -73.4852189, 41.0538598 ], [ -73.4745988, 41.054755 ], [ -73.4376115, 41.0730655 ], [ -73.4237361, 41.0777042 ], [ -73.3797501, 41.1001651 ], [ -73.3719376, 41.1019555 ], [ -73.364068, 41.1060252 ], [ -73.3500269, 41.1067976 ], [ -73.3323811, 41.1137124 ], [ -73.3159935, 41.115339 ], [ -73.3019335, 41.1169903 ], [ -73.2936483, 41.1230948 ], [ -73.2864523, 41.1344924 ], [ -73.2783387, 41.1300175 ], [ -73.2715212, 41.117622 ], [ -73.2621272, 41.1201851 ], [ -73.2444624, 41.1279663 ], [ -73.2338005, 41.1366814 ], [ -73.2278555, 41.1427951 ], [ -73.2242322, 41.149812 ], [ -73.2251684, 41.1632755 ], [ -73.2210994, 41.167141 ], [ -73.2191056, 41.1660017 ], [ -73.2158097, 41.1630313 ], [ -73.2089149, 41.1567228 ], [ -73.1842775, 41.161773 ], [ -73.1840677, 41.1741088 ], [ -73.1701097, 41.1695711 ], [ -73.1643381, 41.1651091 ], [ -73.155087, 41.1588587 ], [ -73.1342371, 41.1472073 ], [ -73.1084851, 41.1487087 ], [ -73.1105918, 41.1619426 ], [ -73.1074113, 41.1747094 ], [ -73.1037492, 41.1803653 ], [ -73.0944718, 41.1913109 ], [ -73.08552, 41.1970076 ], [ -73.0637101, 41.2047794 ], [ -73.0535376, 41.2117374 ], [ -73.0384376, 41.205227 ], [ -73.0138278, 41.2067238 ], [ -73.0020239, 41.2217471 ], [ -72.9929093, 41.22899 ], [ -72.9672745, 41.2564151 ], [ -72.9300431, 41.2837589 ], [ -72.9273576, 41.2888044 ], [ -72.9189347, 41.2986514 ], [ -72.9099829, 41.3051212 ], [ -72.9058325, 41.3005232 ], [ -72.9031469, 41.2771671 ], [ -72.8952531, 41.2658552 ], [ -72.8957258, 41.2555824 ], [ -72.8924267, 41.2449747 ], [ -72.8560666, 41.2454188 ], [ -72.842892, 41.2584712 ], [ -72.8265117, 41.256508 ], [ -72.8133439, 41.2595889 ], [ -72.8060197, 41.2577579 ], [ -72.7897843, 41.2673201 ], [ -72.779449, 41.2701684 ], [ -72.7413224, 41.2721622 ], [ -72.7276505, 41.2701684 ], [ -72.7178849, 41.2658552 ], [ -72.7090958, 41.2605655 ], [ -72.6993302, 41.2565779 ], [ -72.6866756, 41.2564151 ], [ -72.6787817, 41.2604841 ], [ -72.6710506, 41.2674828 ], [ -72.6617732, 41.2740746 ], [ -72.6048071, 41.2837589 ], [ -72.5818986, 41.278754 ], [ -72.5406388, 41.2636579 ], [ -72.5296525, 41.2701684 ], [ -72.5222062, 41.2701684 ], [ -72.5195206, 41.26496 ], [ -72.5169165, 41.2629255 ], [ -72.5133357, 41.2610538 ], [ -72.507924, 41.2564151 ], [ -72.5, 41.2651289 ] ] ] } },
{ "type": "Feature", "properties": { "featurecla": "Coastline", "scalerank": 0, "min_zoom": 3.0 }, "geometry": { "type": "LineString", "coordinates": [ [ -73.9333797, 40.7971866 ], [ -73.9464247, 40.7772344 ], [ -73.9722191, 40.7406793 ], [ -73.9722934, 40.7272027 ], [ -73.9758056, 40.7140128 ], [ -74.0022273, 40.7040469 ], [ -74.0169165, 40.6992862 ], [ -74.0119771, 40.7300381 ], [ -74.0031555, 40.7558712 ], [ -73.9869686, 40.7787133 ], [ -73.9391577, 40.8542341 ], [ -73.93281, 40.8688419 ], [ -73.9280493, 40.8775089 ], [ -73.9179581, 40.8750675 ], [ -73.9166561, 40.8633487 ], [ -73.9296769, 40.8438175 ], [ -73.9387915, 40.8281925 ], [ -73.9400936, 40.8138695 ], [ -73.9333797, 40.7971866 ] ] } },
{ "type": "Feature", "properties": { "featurecla": "Coastline", "scalerank": 6, "min_zoom": 6.0 }, "geometry": { "type": "LineString", "coordinates": [ [ -73.2561444, 40.6390519 ], [ -73.2484016, 40.6477203 ], [ -73.2694568, 40.6492958 ], [ -73.3183112, 40.6466619 ], [ -73.3393841, 40.6445927 ], [ -73.3576006, 40.6403278 ], [ -73.3777382, 40.634617 ], [ -73.400733, 40.6296408 ], [ -73.4438465, 40.6189364 ], [ -73.566393, 40.5903202 ], [ -73.57412, 40.575093 ], [ -73.3895158, 40.6167667 ], [ -73.3203242, 40.6350559 ], [ -73.2561444, 40.6390519 ] ] } },
{ "type": "Feature", "properties": { "featurecla": "Coastline", "scalerank": 5, "min_zoom": 3.0 }, "geometry": { "type": "LineString", "coordinates": [ [ -74.126088, 40.6334903 ], [ -74.1536312, 40.6374897 ], [ -74.1709273, 40.6434102 ], [ -74.182419, 40.6374224 ], [ -74.1918017, 40.6282642 ], [ -74.1943519, 40.6127664 ], [ -74.1978945, 40.5849564 ], [ -74.2014874, 40.5698563 ], [ -74.2071955, 40.5603115 ], [ -74.2186652, 40.5531325 ], [ -74.2327592, 40.547929 ], [ -74.2416035, 40.5391655 ], [ -74.2389302, 40.527259 ], [ -74.2393922, 40.5169395 ], [ -74.2482596, 40.5129374 ], [ -74.2529442, 40.5073544 ], [ -74.250831, 40.5013967 ], [ -74.2429837, 40.4994346 ], [ -74.2283689, 40.5022578 ], [ -74.209069, 40.5094626 ], [ -74.1923614, 40.5114885 ], [ -74.179855, 40.5198615 ], [ -74.1631642, 40.5274469 ], [ -74.1480366, 40.5346291 ], [ -74.1396742, 40.5346442 ], [ -74.133918, 40.532668 ], [ -74.1021027, 40.5545705 ], [ -74.0535687, 40.6027039 ], [ -74.0614512, 40.6146086 ], [ -74.0719413, 40.6233317 ], [ -74.0746151, 40.634033 ], [ -74.0714502, 40.6380307 ], [ -74.0730521, 40.6443723 ], [ -74.0767157, 40.6487445 ], [ -74.0835363, 40.649518 ], [ -74.0973201, 40.6435001 ], [ -74.1102596, 40.6377628 ], [ -74.126088, 40.6334903 ] ] } },
{ "type": "Feature", "properties": { "featurecla": "Coastline", "scalerank": 6, "min_zoom": 6.0 }, "geometry": { "type": "LineString", "coordinates": [ [ -72.8815111, 40.7343999 ], [ -72.9142686, 40.7245272 ], [ -72.9489038, 40.7153857 ], [ -73.0139054, 40.6904564 ], [ -73.040343, 40.6819952 ], [ -73.1046586, 40.6672203 ], [ -73.17661, 40.6509979 ], [ -73.2188303, 40.6396346 ], [ -73.2552915, 40.6296684 ], [ -73.3050461, 40.6299218 ], [ -73.2974586, 40.6226224 ], [ -73.245783, 40.6238061 ], [ -73.1475317, 40.6443139 ], [ -73.041005, 40.6726342 ], [ -72.9915258, 40.6881778 ], [ -72.9134765, 40.7129012 ], [ -72.8315324, 40.7416446 ], [ -72.804921, 40.7508406 ], [ -72.7572393, 40.7600857 ], [ -72.7570827, 40.7688021 ], [ -72.7792301, 40.7668432 ], [ -72.8323701, 40.7477443 ], [ -72.8815111, 40.7343999 ] ] } },
{ "type": "Feature", "properties": { "featurecla": "Coastline", "scalerank": 3, "min_zoom": 0.0 }, "geometry": { "type": "MultiLineString", "coordinates": [ [ [ -72.5, 40.8974254 ], [ -72.5013612, 40.897389 ], [ -72.5238338, 40.9030216 ], [ -72.5439347, 40.9101016 ], [ -72.563588, 40.9123803 ], [ -72.5842993, 40.9004174 ], [ -72.593007, 40.9058292 ], [ -72.602854, 40.9083926 ], [ -72.6134334, 40.9088809 ], [ -72.6246232, 40.907823 ], [ -72.6159373, 40.9277187 ], [ -72.5995622, 40.930715 ], [ -72.5800441, 40.9328782 ], [ -72.5624425, 40.9441981 ], [ -72.5430802, 40.9565697 ], [ -72.5435622, 40.9666229 ], [ -72.533922, 40.9748526 ], [ -72.52066, 40.9851749 ], [ -72.5105484, 40.9848995 ], [ -72.5, 40.9888045 ] ], [ [ -72.5, 41.0428823 ], [ -72.5413471, 41.0238181 ], [ -72.6061092, 40.9899356 ], [ -72.628326, 40.983588 ], [ -72.6960922, 40.9810175 ], [ -72.7811209, 40.9650797 ], [ -72.8300892, 40.9691753 ], [ -72.9003763, 40.963255 ], [ -73.0089688, 40.9670663 ], [ -73.048441, 40.963015 ], [ -73.0762227, 40.9719448 ], [ -73.0845841, 40.9693057 ], [ -73.0791723, 40.9585635 ], [ -73.0821427, 40.9516055 ], [ -73.091298, 40.9483503 ], [ -73.1044002, 40.9487979 ], [ -73.0987443, 40.9695092 ], [ -73.1131486, 40.9734561 ], [ -73.1353654, 40.9684512 ], [ -73.1528214, 40.9624698 ], [ -73.1481014, 40.9456241 ], [ -73.1594946, 40.9302432 ], [ -73.1787003, 40.9190128 ], [ -73.2245988, 40.9082706 ], [ -73.2353409, 40.907823 ], [ -73.2437231, 40.9102644 ], [ -73.2634284, 40.9136232 ], [ -73.2931842, 40.9247038 ], [ -73.3259008, 40.9292567 ], [ -73.3509601, 40.9308564 ], [ -73.3740645, 40.9360734 ], [ -73.3797815, 40.947013 ], [ -73.3951744, 40.9543679 ], [ -73.4019305, 40.9544043 ], [ -73.4077615, 40.9471623 ], [ -73.4100236, 40.9398868 ], [ -73.3995688, 40.9254182 ], [ -73.3789608, 40.9244643 ], [ -73.3606369, 40.9250927 ], [ -73.3547257, 40.91413 ], [ -73.3582658, 40.9004174 ], [ -73.3709204, 40.9000919 ], [ -73.3886613, 40.9059512 ], [ -73.4050213, 40.9039549 ], [ -73.4203182, 40.9004174 ], [ -73.4321997, 40.9076602 ], [ -73.440826, 40.9146589 ], [ -73.4313045, 40.933295 ], [ -73.4620839, 40.9363823 ], [ -73.4856872, 40.9456257 ], [ -73.4940953, 40.9270525 ], [ -73.4853409, 40.9179141 ], [ -73.4691463, 40.9013126 ], [ -73.468129, 40.8936221 ], [ -73.4755349, 40.8907388 ], [ -73.4724439, 40.8823676 ], [ -73.4798283, 40.8772445 ], [ -73.4929368, 40.8816436 ], [ -73.493394, 40.8919915 ], [ -73.5075715, 40.893638 ], [ -73.5097219, 40.8856942 ], [ -73.5113476, 40.8773494 ], [ -73.5349812, 40.8786277 ], [ -73.549098, 40.8909855 ], [ -73.5406699, 40.8953383 ], [ -73.5286036, 40.8917224 ], [ -73.5152889, 40.9004174 ], [ -73.5126847, 40.9050967 ], [ -73.5204635, 40.9176019 ], [ -73.5652735, 40.9145144 ], [ -73.632655, 40.8995857 ], [ -73.6533605, 40.8677855 ], [ -73.6461171, 40.8308668 ], [ -73.6533097, 40.82392 ], [ -73.6655148, 40.8384521 ], [ -73.6743511, 40.8567552 ], [ -73.7053065, 40.8667445 ], [ -73.7202042, 40.8662377 ], [ -73.7312719, 40.8544376 ], [ -73.7330623, 40.8436954 ], [ -73.7004288, 40.8336042 ], [ -73.6968888, 40.8218855 ], [ -73.7029923, 40.8101667 ], [ -73.714589, 40.8047956 ], [ -73.7217911, 40.8112247 ], [ -73.7293595, 40.8240827 ], [ -73.7398169, 40.8343367 ], [ -73.7555232, 40.8327904 ], [ -73.76426, 40.8100316 ], [ -73.7501367, 40.791346 ], [ -73.7575224, 40.7711111 ], [ -73.778989, 40.7921766 ], [ -73.823054, 40.7973822 ], [ -73.86086, 40.7763513 ], [ -73.8703029, 40.7823128 ], [ -73.8870943, 40.7799343 ], [ -73.9085999, 40.7886774 ], [ -73.9302333, 40.7731211 ], [ -73.9567962, 40.7431715 ], [ -73.9593714, 40.7246634 ], [ -73.9693355, 40.7087494 ], [ -73.9803361, 40.7046166 ], [ -73.99059, 40.6997745 ], [ -73.9976966, 40.6960874 ], [ -74.0018794, 40.690127 ], [ -74.0154793, 40.6778037 ], [ -74.0128397, 40.6647001 ], [ -74.023811, 40.6492001 ], [ -74.0358348, 40.6388594 ], [ -74.0399897, 40.6197857 ], [ -74.0300213, 40.6054977 ], [ -74.0048955, 40.597182 ], [ -73.998087, 40.5896323 ], [ -74.0006949, 40.5832716 ], [ -74.0116738, 40.5792883 ], [ -74.003817, 40.5705508 ], [ -73.9881254, 40.5693704 ], [ -73.9415829, 40.5745576 ], [ -73.9321693, 40.5777372 ], [ -73.926418, 40.5836985 ], [ -73.91177, 40.5836974 ], [ -73.897644, 40.5832965 ], [ -73.8918883, 40.5769353 ], [ -73.8777611, 40.5820955 ], [ -73.8835157, 40.6003791 ], [ -73.8929357, 40.6142894 ], [ -73.8913468, 40.6236026 ], [ -73.8829893, 40.631768 ], [ -73.8772298, 40.636136 ], [ -73.8688487, 40.6401043 ], [ -73.8515637, 40.6436701 ], [ -73.8295591, 40.648819 ], [ -73.8154114, 40.6456274 ], [ -73.7981288, 40.6380593 ], [ -73.7808488, 40.6288979 ], [ -73.7714197, 40.6233187 ], [ -73.7688059, 40.6185457 ], [ -73.776157, 40.6106075 ], [ -73.789792, 40.6002918 ], [ -73.8505485, 40.5808843 ], [ -73.9394789, 40.555477 ], [ -73.9394702, 40.5419589 ], [ -73.8971176, 40.5546781 ], [ -73.8125896, 40.5837357 ], [ -73.7680502, 40.5896433 ], [ -73.7523491, 40.5856508 ], [ -73.7073432, 40.5827943 ], [ -73.5818008, 40.5844864 ], [ -73.5754805, 40.5932063 ], [ -73.6063366, 40.5940865 ], [ -73.7104469, 40.5951149 ], [ -73.7109252, 40.6102116 ], [ -73.6957902, 40.6215274 ], [ -73.6679504, 40.6260141 ], [ -73.6554174, 40.6180405 ], [ -73.6559755, 40.6089057 ], [ -73.6643672, 40.603761 ], [ -73.6528648, 40.6013512 ], [ -73.6434331, 40.6049043 ], [ -73.6271734, 40.6143971 ], [ -73.5611208, 40.6380489 ], [ -73.5045458, 40.6438299 ], [ -73.4021574, 40.6577191 ], [ -73.372217, 40.6623655 ], [ -73.3174887, 40.6835732 ], [ -73.2750033, 40.6869299 ], [ -73.2618169, 40.6955983 ], [ -73.2470265, 40.7070361 ], [ -73.2333234, 40.7145047 ], [ -73.2119311, 40.7056415 ], [ -73.1795141, 40.704698 ], [ -73.1580298, 40.6997414 ], [ -73.1453932, 40.7052191 ], [ -73.1424048, 40.7161319 ], [ -73.1404357, 40.7262375 ], [ -73.1293835, 40.7301351 ], [ -73.1147319, 40.7280494 ], [ -73.0990999, 40.720394 ], [ -73.0833234, 40.7246515 ], [ -73.0549542, 40.729212 ], [ -73.0334214, 40.7314345 ], [ -73.0225724, 40.7475854 ], [ -73.0121964, 40.7495792 ], [ -72.9468169, 40.7418916 ], [ -72.9262589, 40.7564151 ], [ -72.9103619, 40.7582735 ], [ -72.8892574, 40.7656385 ], [ -72.8790747, 40.7456858 ], [ -72.8527921, 40.7494231 ], [ -72.8327531, 40.7596296 ], [ -72.8179419, 40.7684187 ], [ -72.8136287, 40.7816023 ], [ -72.8280089, 40.7897084 ], [ -72.8018986, 40.7827105 ], [ -72.7651707, 40.7831479 ], [ -72.7439468, 40.7968395 ], [ -72.7269606, 40.8077895 ], [ -72.7003449, 40.7995706 ], [ -72.679325, 40.80094 ], [ -72.66358, 40.8007731 ], [ -72.6505164, 40.7974552 ], [ -72.6784585, 40.7909998 ], [ -72.7253868, 40.778379 ], [ -72.7316944, 40.7776489 ], [ -72.7379044, 40.7737898 ], [ -72.7320044, 40.7699649 ], [ -72.7239547, 40.7704193 ], [ -72.7044421, 40.776177 ], [ -72.6052799, 40.8013303 ], [ -72.5418188, 40.820502 ], [ -72.5023087, 40.8390567 ], [ -72.5, 40.8406231 ] ], [ [ -72.5, 40.8732961 ], [ -72.5005997, 40.876044 ], [ -72.5, 40.8772435 ] ] ] } }
]
}
