{
  "type": "FeatureCollection",
  "schema_version": 2,
  "generated": true,
  "generated_from": "qgis/encounters.gpkg",
  "placeholder": true,
  "notice": "All encounters and coordinates in this prototype are fictional placeholders.",
  "features": [
    {
      "type": "Feature",
      "properties": {
        "id": "E001",
        "title": "A Door Left Open",
        "placeholder": true,
        "tm_position": "RECENT_PAST",
        "af_primary": "WONDER",
        "kn_primary": "IMAGINED",
        "media": [
          {
            "type": "text",
            "src": null,
            "text": "A room holds the last of the afternoon. Beyond the doorway, something has already gone.",
            "caption": "Fictional placeholder",
            "alt": null
          }
        ]
      },
      "geometry": {
        "type": "Point",
        "coordinates": [
          -73.991,
          40.726
        ]
      }
    },
    {
      "type": "Feature",
      "properties": {
        "id": "E002",
        "title": "Low Water",
        "placeholder": true,
        "tm_position": "PRESENT",
        "af_primary": "SERENITY",
        "kn_primary": "WITNESSED",
        "media": [
          {
            "type": "text",
            "src": null,
            "text": "Stones surface where the current thins. The river keeps a quieter record beneath them.",
            "caption": "Fictional placeholder",
            "alt": null
          }
        ]
      },
      "geometry": {
        "type": "Point",
        "coordinates": [
          -74.046,
          40.884
        ]
      }
    },
    {
      "type": "Feature",
      "properties": {
        "id": "E003",
        "title": "The Unsent Weather",
        "placeholder": true,
        "tm_position": "NEAR_FUTURE",
        "af_primary": "ANXIETY",
        "kn_primary": "ANTICIPATED",
        "media": [
          {
            "type": "text",
            "src": null,
            "text": "A forecast addressed to no one gathers at the edge of the field.",
            "caption": "Fictional placeholder",
            "alt": null
          }
        ]
      },
      "geometry": {
        "type": "Point",
        "coordinates": [
          -73.812,
          40.972
        ]
      }
    },
    {
      "type": "Feature",
      "properties": {
        "id": "E004",
        "title": "Cicadas After Rain",
        "placeholder": true,
        "tm_position": "DISTANT_PAST",
        "af_primary": "NOSTALGIA",
        "kn_primary": "REMEMBERED",
        "media": [
          {
            "type": "text",
            "src": null,
            "text": "The sound begins in one tree and is answered from another summer.",
            "caption": "Fictional placeholder",
            "alt": null
          }
        ]
      },
      "geometry": {
        "type": "Point",
        "coordinates": [
          -73.764,
          40.759
        ]
      }
    },
    {
      "type": "Feature",
      "properties": {
        "id": "E005",
        "title": "A Light Across the Cut",
        "placeholder": true,
        "tm_position": "INDETERMINATE",
        "af_primary": "EERINESS",
        "kn_primary": "UNRESOLVED",
        "media": [
          {
            "type": "text",
            "src": null,
            "text": "For a moment the opposite hillside appears inhabited, then the light is gone.",
            "caption": "Fictional placeholder",
            "alt": null
          }
        ]
      },
      "geometry": {
        "type": "Point",
        "coordinates": [
          -73.918,
          41.081
        ]
      }
    },
    {
      "type": "Feature",
      "properties": {
        "id": "E006",
        "title": "The Empty Platform",
        "placeholder": true,
        "tm_position": "RECENT_PAST",
        "af_primary": "LONELINESS",
        "kn_primary": "INHERITED",
        "media": [
          {
            "type": "text",
            "src": null,
            "text": "No train is expected, but the rails continue gathering the evening.",
            "caption": "Fictional placeholder",
            "alt": null
          },
          {
            "type": "image",
            "src": "media/placeholders/placeholder-horizon.svg",
            "text": null,
            "caption": "Fictional placeholder image",
            "alt": "A thin horizontal line crossing a pale field."
          }
        ]
      },
      "geometry": {
        "type": "Point",
        "coordinates": [
          -74.164,
          40.738
        ]
      }
    },
    {
      "type": "Feature",
      "properties": {
        "id": "E007",
        "title": "Blue Thread",
        "placeholder": true,
        "tm_position": "PRESENT",
        "af_primary": "TENDERNESS",
        "kn_primary": "WITNESSED",
        "media": [
          {
            "type": "text",
            "src": null,
            "text": "A length of blue thread catches on the fence and points briefly east.",
            "caption": "Fictional placeholder",
            "alt": null
          },
          {
            "type": "audio",
            "src": "media/placeholders/placeholder-tone.mp3",
            "text": null,
            "caption": "Fictional placeholder tone",
            "alt": null
          }
        ]
      },
      "geometry": {
        "type": "Point",
        "coordinates": [
          -73.842,
          40.682
        ]
      }
    },
    {
      "type": "Feature",
      "properties": {
        "id": "E008",
        "title": "Rooms Above the Trees",
        "placeholder": true,
        "tm_position": "DISTANT_FUTURE",
        "af_primary": "ESTRANGEMENT",
        "kn_primary": "ANTICIPATED",
        "media": [
          {
            "type": "text",
            "src": null,
            "text": "Windows appear above the canopy where no building has yet been raised.",
            "caption": "Fictional placeholder",
            "alt": null
          },
          {
            "type": "video",
            "src": "media/placeholders/placeholder-field.mp4",
            "text": null,
            "caption": "Fictional placeholder video",
            "alt": null
          }
        ]
      },
      "geometry": {
        "type": "Point",
        "coordinates": [
          -73.954,
          40.821
        ]
      }
    },
    {
      "type": "Feature",
      "properties": {
        "id": "E009",
        "title": "Salt on the Steps",
        "placeholder": true,
        "tm_position": "RECENT_PAST",
        "af_primary": "MELANCHOLY",
        "kn_primary": "INFERRED",
        "media": [
          {
            "type": "text",
            "src": null,
            "text": "A white line remains after the water leaves, measuring a storm no one names.",
            "caption": "Fictional placeholder",
            "alt": null
          }
        ]
      },
      "geometry": {
        "type": "Point",
        "coordinates": [
          -73.886,
          40.641
        ]
      }
    },
    {
      "type": "Feature",
      "properties": {
        "id": "E010",
        "title": "Night Orchard",
        "placeholder": true,
        "tm_position": "DISTANT_PAST",
        "af_primary": "JOY",
        "kn_primary": "DREAMED",
        "media": [
          {
            "type": "text",
            "src": null,
            "text": "Fruit falls in the dark, one soft interruption after another.",
            "caption": "Fictional placeholder",
            "alt": null
          }
        ]
      },
      "geometry": {
        "type": "Point",
        "coordinates": [
          -74.052,
          41.142
        ]
      }
    },
    {
      "type": "Feature",
      "properties": {
        "id": "E011",
        "title": "A Map Folded Wrong",
        "placeholder": true,
        "tm_position": "PRESENT",
        "af_primary": "AMBIVALENCE",
        "kn_primary": "DOCUMENTED",
        "media": [
          {
            "type": "text",
            "src": null,
            "text": "Two distant roads touch along a crease and remain together when the page opens.",
            "caption": "Fictional placeholder",
            "alt": null
          }
        ]
      },
      "geometry": {
        "type": "Point",
        "coordinates": [
          -73.708,
          41.048
        ]
      }
    },
    {
      "type": "Feature",
      "properties": {
        "id": "E012",
        "title": "Underpass Choir",
        "placeholder": true,
        "tm_position": "INDETERMINATE",
        "af_primary": "FEAR",
        "kn_primary": "WITNESSED",
        "media": [
          {
            "type": "text",
            "src": null,
            "text": "Traffic becomes a held note beneath the concrete, then divides into weather.",
            "caption": "Fictional placeholder",
            "alt": null
          }
        ]
      },
      "geometry": {
        "type": "Point",
        "coordinates": [
          -74.218,
          40.872
        ]
      }
    },
    {
      "type": "Feature",
      "properties": {
        "id": "E013",
        "title": "The Borrowed Horizon",
        "placeholder": true,
        "tm_position": "NEAR_FUTURE",
        "af_primary": "DESIRE",
        "kn_primary": "IMAGINED",
        "media": [
          {
            "type": "text",
            "src": null,
            "text": "For one block the street borrows the horizon from a place much farther away.",
            "caption": "Fictional placeholder",
            "alt": null
          }
        ]
      },
      "geometry": {
        "type": "Point",
        "coordinates": [
          -73.612,
          40.846
        ]
      }
    },
    {
      "type": "Feature",
      "properties": {
        "id": "E014",
        "title": "Ash in the Snow",
        "placeholder": true,
        "tm_position": "RECENT_PAST",
        "af_primary": "GRIEF",
        "kn_primary": "DOCUMENTED",
        "media": [
          {
            "type": "text",
            "src": null,
            "text": "Gray marks settle into the new snow and disappear before the thaw.",
            "caption": "Fictional placeholder",
            "alt": null
          }
        ]
      },
      "geometry": {
        "type": "Point",
        "coordinates": [
          -74.104,
          40.998
        ]
      }
    },
    {
      "type": "Feature",
      "properties": {
        "id": "E015",
        "title": "Signal Without a Source",
        "placeholder": true,
        "tm_position": "ATEMPORAL",
        "af_primary": "ANGER",
        "kn_primary": "GENERATED",
        "media": [
          {
            "type": "text",
            "src": null,
            "text": "A receiver wakes for three seconds and offers a voice made entirely of distance.",
            "caption": "Fictional placeholder",
            "alt": null
          }
        ]
      },
      "geometry": {
        "type": "Point",
        "coordinates": [
          -73.746,
          40.762
        ]
      }
    }
  ]
}
